STARLINK-3883           
1 52493U 22049AU  25106.93677450  .00000056  00000+0  21625-4 0  9995
2 52493  53.2172  75.9690 0001709  96.8797 263.2389 15.08838823163069
STARLINK-3857           
1 52494U 22049AV  25106.11981640  .00001009  00000+0  81480-4 0  9999
2 52494  53.2164  79.6351 0001312  87.9815 272.1327 15.08834000162948
STARLINK-3871           
1 52496U 22049AX  25106.88387236  .00001328  00000+0  10154-3 0  9999
2 52496  53.2180  71.2071 0001685  85.0401 275.0784 15.08843175163121
STARLINK-3884           
1 52497U 22049AY  25106.12718808  .00000986  00000+0  80026-4 0  9995
2 52497  53.2179  79.6015 0001625  74.0818 286.0353 15.08833075162945
STARLINK-3925           
1 52498U 22049AZ  25106.89720886  .00003558  00000+0  24143-3 0  9994
2 52498  53.2168  66.1452 0001504  94.3011 265.8153 15.08850664163190
STARLINK-3894           
1 52499U 22049BA  25106.91836988  .00000390  00000+0  42604-4 0  9993
2 52499  53.2197  76.0519 0001793  89.6354 270.4843 15.08842400163067
STARLINK-3866           
1 52500U 22049BB  25106.62860243 -.00003233  00000+0 -18524-3 0  9999
2 52500  53.2164  67.3519 0001566  83.9199 276.1972 15.08812602163156
STARLINK-3907           
1 52501U 22049BC  25106.63130740  .00002191  00000+0  15568-3 0  9998
2 52501  53.2165  77.1368 0001266  92.1107 268.0030 15.08844444163027
STARLINK-3912           
1 52502U 22049BD  25106.88985775  .00000175  00000+0  29058-4 0  9992
2 52502  53.2160  66.2078 0001420  83.6121 276.5033 15.08844689163199
STARLINK-3861           
1 52503U 22049BE  25106.87879859  .00002694  00000+0  18725-3 0  9993
2 52503  53.2171  66.1139 0001228  87.5560 272.5573 15.08842314163193
STARLINK-3952           
1 52534U 22051B   25106.55406482  .00003346  00000+0  22837-3 0  9997
2 52534  53.2175 157.6841 0001813 110.2807 249.8380 15.08820138162120
STARLINK-3958           
1 52535U 22051C   25106.55038173 -.00000556  00000+0 -16833-4 0  9998
2 52535  53.2161 157.7033 0001385  86.0318 274.0833 15.08831838162055
STARLINK-3964           
1 52536U 22051D   25106.54669242  .00002471  00000+0  17326-3 0  9998
2 52536  53.2162 157.7206 0001382 102.1943 257.9203 15.08846844162122
STARLINK-3897           
1 52537U 22051E   25106.52460370 -.00000732  00000+0 -27898-4 0  9994
2 52537  53.2177 157.6281 0001184  80.2763 279.8363 15.08846359162050
