[
  {
    "OBJECT_NAME": "STARLINK-3883",
    "OBJECT_ID": "2022-049AU",
    "EPOCH": "2025-04-16T22:28:57.316800",
    "MEAN_MOTION": 15.08838823,
    "ECCENTRICITY": 0.0001709,
    "INCLINATION": 53.2172,
    "RA_OF_ASC_NODE": 75.969,
    "ARG_OF_PERICENTER": 96.8797,
    "MEAN_ANOMALY": 263.2389,
    "EPHEMERIS_TYPE": 0,
    "CLASSIFICATION_TYPE": "U",
    "NORAD_CAT_ID": 52493,
    "ELEMENT_SET_NO": 999,
    "REV_AT_EPOCH": 16306,
    "BSTAR": 2.1625e-5,
    "MEAN_MOTION_DOT": 5.6e-7,
    "MEAN_MOTION_DDOT": 0
  },
  {
    "OBJECT_NAME": "STARLINK-3857",
    "OBJECT_ID": "2022-049AV",
    "EPOCH": "2025-04-16T02:52:32.136960",
    "MEAN_MOTION": 15.08834,
    "ECCENTRICITY": 0.0001312,
    "INCLINATION": 53.2164,
    "RA_OF_ASC_NODE": 79.6351,
    "ARG_OF_PERICENTER": 87.9815,
    "MEAN_ANOMALY": 272.1327,
    "EPHEMERIS_TYPE": 0,
    "CLASSIFICATION_TYPE": "U",
    "NORAD_CAT_ID": 52494,
    "ELEMENT_SET_NO": 999,
    "REV_AT_EPOCH": 16294,
    "BSTAR": 8.148e-5,
    "MEAN_MOTION_DOT": 1.009e-5,
    "MEAN_MOTION_DDOT": 0
  },
  {
    "OBJECT_NAME": "STARLINK-3871",
    "OBJECT_ID": "2022-049AX",
    "EPOCH": "2025-04-16T21:12:46.571904",
    "MEAN_MOTION": 15.08843175,
    "ECCENTRICITY": 0.0001685,
    "INCLINATION": 53.218,
    "RA_OF_ASC_NODE": 71.2071,
    "ARG_OF_PERICENTER": 85.0401,
    "MEAN_ANOMALY": 275.0784,
    "EPHEMERIS_TYPE": 0,
    "CLASSIFICATION_TYPE": "U",
    "NORAD_CAT_ID": 52496,
    "ELEMENT_SET_NO": 999,
    "REV_AT_EPOCH": 16312,
    "BSTAR": 0.00010154,
    "MEAN_MOTION_DOT": 1.328e-5,
    "MEAN_MOTION_DDOT": 0
  },
  {
    "OBJECT_NAME": "STARLINK-3884",
    "OBJECT_ID": "2022-049AY",
    "EPOCH": "2025-04-16T03:03:09.050112",
    "MEAN_MOTION": 15.08833075,
    "ECCENTRICITY": 0.0001625,
    "INCLINATION": 53.2179,
    "RA_OF_ASC_NODE": 79.6015,
    "ARG_OF_PERICENTER": 74.0818,
    "MEAN_ANOMALY": 286.0353,
    "EPHEMERIS_TYPE": 0,
    "CLASSIFICATION_TYPE": "U",
    "NORAD_CAT_ID": 52497,
    "ELEMENT_SET_NO": 999,
    "REV_AT_EPOCH": 16294,
    "BSTAR": 8.0026e-5,
    "MEAN_MOTION_DOT": 9.86e-6,
    "MEAN_MOTION_DDOT": 0
  },
  {
    "OBJECT_NAME": "STARLINK-3925",
    "OBJECT_ID": "2022-049AZ",
    "EPOCH": "2025-04-16T21:31:58.845504",
    "MEAN_MOTION": 15.08850664,
    "ECCENTRICITY": 0.0001504,
    "INCLINATION": 53.2168,
    "RA_OF_ASC_NODE": 66.1452,
    "ARG_OF_PERICENTER": 94.3011,
    "MEAN_ANOMALY": 265.8153,
    "EPHEMERIS_TYPE": 0,
    "CLASSIFICATION_TYPE": "U",
    "NORAD_CAT_ID": 52498,
    "ELEMENT_SET_NO": 999,
    "REV_AT_EPOCH": 16319,
    "BSTAR": 0.00024143,
    "MEAN_MOTION_DOT": 3.558e-5,
    "MEAN_MOTION_DDOT": 0
  },
  {
    "OBJECT_NAME": "STARLINK-3894",
    "OBJECT_ID": "2022-049BA",
    "EPOCH": "2025-04-16T22:02:27.157632",
    "MEAN_MOTION": 15.088424,
    "ECCENTRICITY": 0.0001793,
    "INCLINATION": 53.2197,
    "RA_OF_ASC_NODE": 76.0519,
    "ARG_OF_PERICENTER": 89.6354,
    "MEAN_ANOMALY": 270.4843,
    "EPHEMERIS_TYPE": 0,
    "CLASSIFICATION_TYPE": "U",
    "NORAD_CAT_ID": 52499,
    "ELEMENT_SET_NO": 999,
    "REV_AT_EPOCH": 16306,
    "BSTAR": 4.2604e-5,
    "MEAN_MOTION_DOT": 3.9e-6,
    "MEAN_MOTION_DDOT": 0
  },
  {
    "OBJECT_NAME": "STARLINK-3866",
    "OBJECT_ID": "2022-049BB",
    "EPOCH": "2025-04-16T15:05:11.249952",
    "MEAN_MOTION": 15.08812602,
    "ECCENTRICITY": 0.0001566,
    "INCLINATION": 53.2164,
    "RA_OF_ASC_NODE": 67.3519,
    "ARG_OF_PERICENTER": 83.9199,
    "MEAN_ANOMALY": 276.1972,
    "EPHEMERIS_TYPE": 0,
    "CLASSIFICATION_TYPE": "U",
    "NORAD_CAT_ID": 52500,
    "ELEMENT_SET_NO": 999,
    "REV_AT_EPOCH": 16315,
    "BSTAR": -0.00018524,
    "MEAN_MOTION_DOT": -3.233e-5,
    "MEAN_MOTION_DDOT": 0
  },
  {
    "OBJECT_NAME": "STARLINK-3907",
    "OBJECT_ID": "2022-049BC",
    "EPOCH": "2025-04-16T15:09:04.959360",
    "MEAN_MOTION": 15.08844444,
    "ECCENTRICITY": 0.0001266,
    "INCLINATION": 53.2165,
    "RA_OF_ASC_NODE": 77.1368,
    "ARG_OF_PERICENTER": 92.1107,
    "MEAN_ANOMALY": 268.003,
    "EPHEMERIS_TYPE": 0,
    "CLASSIFICATION_TYPE": "U",
    "NORAD_CAT_ID": 52501,
    "ELEMENT_SET_NO": 999,
    "REV_AT_EPOCH": 16302,
    "BSTAR": 0.00015568,
    "MEAN_MOTION_DOT": 2.191e-5,
    "MEAN_MOTION_DDOT": 0
  },
  {
    "OBJECT_NAME": "STARLINK-3912",
    "OBJECT_ID": "2022-049BD",
    "EPOCH": "2025-04-16T21:21:23.709600",
    "MEAN_MOTION": 15.08844689,
    "ECCENTRICITY": 0.000142,
    "INCLINATION": 53.216,
    "RA_OF_ASC_NODE": 66.2078,
    "ARG_OF_PERICENTER": 83.6121,
    "MEAN_ANOMALY": 276.5033,
    "EPHEMERIS_TYPE": 0,
    "CLASSIFICATION_TYPE": "U",
    "NORAD_CAT_ID": 52502,
    "ELEMENT_SET_NO": 999,
    "REV_AT_EPOCH": 16319,
    "BSTAR": 2.9058e-5,
    "MEAN_MOTION_DOT": 1.75e-6,
    "MEAN_MOTION_DDOT": 0
  },
  {
    "OBJECT_NAME": "STARLINK-3861",
    "OBJECT_ID": "2022-049BE",
    "EPOCH": "2025-04-16T21:05:28.198176",
    "MEAN_MOTION": 15.08842314,
    "ECCENTRICITY": 0.0001228,
    "INCLINATION": 53.2171,
    "RA_OF_ASC_NODE": 66.1139,
    "ARG_OF_PERICENTER": 87.556,
    "MEAN_ANOMALY": 272.5573,
    "EPHEMERIS_TYPE": 0,
    "CLASSIFICATION_TYPE": "U",
    "NORAD_CAT_ID": 52503,
    "ELEMENT_SET_NO": 999,
    "REV_AT_EPOCH": 16319,
    "BSTAR": 0.00018725,
    "MEAN_MOTION_DOT": 2.694e-5,
    "MEAN_MOTION_DDOT": 0
  },
  {
    "OBJECT_NAME": "STARLINK-3952",
    "OBJECT_ID": "2022-051B",
    "EPOCH": "2025-04-16T13:17:51.200448",
    "MEAN_MOTION": 15.08820138,
    "ECCENTRICITY": 0.0001813,
    "INCLINATION": 53.2175,
    "RA_OF_ASC_NODE": 157.6841,
    "ARG_OF_PERICENTER": 110.2807,
    "MEAN_ANOMALY": 249.838,
    "EPHEMERIS_TYPE": 0,
    "CLASSIFICATION_TYPE": "U",
    "NORAD_CAT_ID": 52534,
    "ELEMENT_SET_NO": 999,
    "REV_AT_EPOCH": 16212,
    "BSTAR": 0.00022837,
    "MEAN_MOTION_DOT": 3.346e-5,
    "MEAN_MOTION_DDOT": 0
  },
  {
    "OBJECT_NAME": "STARLINK-3958",
    "OBJECT_ID": "2022-051C",
    "EPOCH": "2025-04-16T13:12:32.981472",
    "MEAN_MOTION": 15.08831838,
    "ECCENTRICITY": 0.0001385,
    "INCLINATION": 53.2161,
    "RA_OF_ASC_NODE": 157.7033,
    "ARG_OF_PERICENTER": 86.0318,
    "MEAN_ANOMALY": 274.0833,
    "EPHEMERIS_TYPE": 0,
    "CLASSIFICATION_TYPE": "U",
    "NORAD_CAT_ID": 52535,
    "ELEMENT_SET_NO": 999,
    "REV_AT_EPOCH": 16205,
    "BSTAR": -1.6833e-5,
    "MEAN_MOTION_DOT": -5.56e-6,
    "MEAN_MOTION_DDOT": 0
  },
  {
    "OBJECT_NAME": "STARLINK-3964",
    "OBJECT_ID": "2022-051D",
    "EPOCH": "2025-04-16T13:07:14.225088",
    "MEAN_MOTION": 15.08846844,
    "ECCENTRICITY": 0.0001382,
    "INCLINATION": 53.2162,
    "RA_OF_ASC_NODE": 157.7206,
    "ARG_OF_PERICENTER": 102.1943,
    "MEAN_ANOMALY": 257.9203,
    "EPHEMERIS_TYPE": 0,
    "CLASSIFICATION_TYPE": "U",
    "NORAD_CAT_ID": 52536,
    "ELEMENT_SET_NO": 999,
    "REV_AT_EPOCH": 16212,
    "BSTAR": 0.00017326,
    "MEAN_MOTION_DOT": 2.471e-5,
    "MEAN_MOTION_DDOT": 0
  },
  {
    "OBJECT_NAME": "STARLINK-3897",
    "OBJECT_ID": "2022-051E",
    "EPOCH": "2025-04-16T12:35:25.759680",
    "MEAN_MOTION": 15.08846359,
    "ECCENTRICITY": 0.0001184,
    "INCLINATION": 53.2177,
    "RA_OF_ASC_NODE": 157.6281,
    "ARG_OF_PERICENTER": 80.2763,
    "MEAN_ANOMALY": 279.8363,
    "EPHEMERIS_TYPE": 0,
    "CLASSIFICATION_TYPE": "U",
    "NORAD_CAT_ID": 52537,
    "ELEMENT_SET_NO": 999,
    "REV_AT_EPOCH": 16205,
    "BSTAR": -2.7898e-5,
    "MEAN_MOTION_DOT": -7.32e-6,
    "MEAN_MOTION_DDOT": 0
  }
]
